ARIANE 40+ R/B          
1 23561U 95021B   26170.70520852  .00000191  00000+0  74769-4 0  9996
2 23561  98.4411 240.7438 0006608 185.7852 287.8802 14.39834591633925
SL-16 R/B               
1 23705U 95058B   26170.67653352  .00000243  00000+0  14833-3 0  9997
2 23705  71.0224 326.1315 0013923 317.0575  42.9460 14.15509958582289
SL-16 R/B               
1 24298U 96051B   26170.86414398  .00000118  00000+0  90399-4 0  9998
2 24298  70.7644 318.9830 0015706 332.9211  27.1087 14.12446718536071
ORBVIEW 2 (SEASTAR)     
1 24883U 97037A   26170.38974780  .00000156  00000+0  70443-4 0  9996
2 24883  98.8690 337.4697 0003243 111.6179 248.5351 14.35554150523061
SL-16 R/B               
1 25400U 98043G   26170.46780100  .00000035  00000+0  33754-4 0  9990
2 25400  98.8364 124.6467 0010947  80.4627 279.7789 14.26068958453492
SL-16 R/B               
1 25407U 98045B   26170.84930743 -.00000150  00000+0 -51390-4 0  9997
2 25407  71.0116 326.7305 0009260 238.3201 121.7020 14.16202419441561
ISS (ZARYA)             
1 25544U 98067A   26170.83410214  .00008787  00000+0  16559-3 0  9997
2 25544  51.6327 286.9925 0004571 206.3214 153.7542 15.49322400572160
CZ-4B R/B               
1 25732U 99025C   26170.75851602  .00000024  00000+0  32026-4 0  9996
2 25732  98.6482 212.5323 0037988  52.4474  60.6695 14.18283838402630
OKEAN-O                 
1 25860U 99039A   26170.71310383  .00000449  00000+0  65544-4 0  9997
2 25860  97.9314 229.4819 0001549  71.6153 288.5227 14.80469987449482
SL-16 R/B               
1 25861U 99039B   26170.73252845  .00000346  00000+0  50515-4 0  9996
2 25861  97.9836 229.5883 0013417 287.8504  72.1245 14.81847236451974
DELTA 2 R/B             
1 25876U 99041E   26170.51119824  .00000313  00000+0  88505-4 0  9994
2 25876  51.7651 254.5131 0500847 288.8870  65.8407 14.12018937377419
HELIOS 1B               
1 25977U 99064A   26170.73393777  .00001006  00000+0  11592-3 0  9997
2 25977  98.1613  75.9474 0002545  87.7385 272.4121 14.88012222700433
TERRA                   
1 25994U 99068A   26170.83479081  .00000280  00000+0  65954-4 0  9999
2 25994  97.9455 220.2761 0001794 180.7116 290.3112 14.61104873409999
SL-16 R/B               
1 26070U 00006B   26170.46731941  .00000095  00000+0  72744-4 0  9993
2 26070  71.0018 243.8310 0015659  19.5397 340.6323 14.15834373362961
TITAN 4B R/B            
1 26474U 00047B   26170.84192073  .00002490  00000+0  15673-3 0  9993
2 26474  67.9884 113.1008 0045848 284.2758  75.3302 15.10210234408333
ENVISAT                 
1 27386U 02009A   26170.88282218  .00000058  00000+0  32811-4 0  9993
2 27386  98.3834 122.1412 0001389  89.3478 287.9562 14.39065299273870
IDEFIX & ARIANE 42P R/B 
1 27422U 02021B   26170.71650407  .00000156  00000+0  75812-4 0  9996
2 27422  98.5942 108.1723 0010614 245.5544 114.4532 14.31083048258613
AQUA                    
1 27424U 02022A   26170.85395465  .00000565  00000+0  12222-3 0  9993
2 27424  98.4277 140.1900 0001000  54.7538 335.1578 14.62161415283664
CZ-4B R/B               
1 27432U 02024C   26170.72590192  .00000021  00000+0  33195-4 0  9994
2 27432  98.8698 223.5297 0051219  93.1806  18.4687 14.14564690243668
MIDORI II (ADEOS-II)    
1 27597U 02056A   26170.72812285  .00000191  00000+0  92941-4 0  9993
2 27597  98.7878 130.0096 0002174  73.3709 286.7711 14.29350768224871
H-2A R/B                
1 27601U 02056E   26170.73435078  .00000150  00000+0  67202-4 0  9998
2 27601  98.3312 127.3160 0069297 216.8811 209.1775 14.33822991228739
CZ-4B R/B               
1 28059U 03049C   26170.56920154  .00000206  00000+0  58954-4 0  9990
2 28059  98.6896 169.5106 0046912 281.1238  78.4685 14.55101454201413
CZ-2C R/B               
1 28222U 04012C   26170.82149828  .00090295  00000+0  49589-3 0  9993
2 28222  97.7076 246.7920 0009702 272.9937  87.0218 15.79438376220318
SL-16 R/B               
1 28353U 04021B   26170.70691877 -.00000192  00000+0 -74933-4 0  9992
2 28353  71.0005  18.4011 0007171 251.6231 108.4112 14.14607476137263
CZ-4B R/B               
1 28415U 04035C   26170.68220544  .00006109  00000+0  20607-3 0  9992
2 28415  97.3362 203.7276 0029630 328.7624  31.1855 15.30655787195501
CZ-2C R/B               
1 28480U 04046B   26170.71572233  .00000046  00000+0  32403-4 0  9997
2 28480  98.1943  79.3386 0138613 212.7417 146.5118 14.27026937123058
ARIANE 5 R/B            
1 28499U 04049H   26170.48783855  .00000428  00000+0  53703-4 0  9998
2 28499  98.2722 342.8294 0084334  22.0227 338.4576 14.85451455160907
CZ-2D R/B               
1 28738U 05024B   26170.57807125  .00048463  00000+0  40689-3 0  9994
2 28738  97.3481 190.1257 0002967  49.2579 310.8941 15.69779759155717
ALOS (DAICHI)           
1 28931U 06002A   26170.81314494  .00000757  00000+0  13441-3 0  9995
2 28931  98.1324 126.3723 0001351  56.4498 303.6837 14.70054658 88480
H-2A R/B                
1 28932U 06002B   26170.49336598  .00005418  00000+0  26150-3 0  9999
2 28932  98.2571 326.5305 0049604 254.2243 105.3515 15.18084943109875
