OBJECT_NAME,OBJECT_ID,EPOCH,MEAN_MOTION,ECCENTRICITY,INCLINATION,RA_OF_ASC_NODE,ARG_OF_PERICENTER,MEAN_ANOMALY,EPHEMERIS_TYPE,CLASSIFICATION_TYPE,NORAD_CAT_ID,ELEMENT_SET_NO,REV_AT_EPOCH,BSTAR,MEAN_MOTION_DOT,MEAN_MOTION_DDOT
ARIANE 40+ R/B,1995-021B,2026-06-19T16:55:30.016128,14.39834591,.0006608,98.4411,240.7438,185.7852,287.8802,0,U,23561,999,63392,.74769E-4,.191E-5,0
SL-16 R/B,1995-058B,2026-06-19T16:14:12.496128,14.15509958,.0013923,71.0224,326.1315,317.0575,42.9460,0,U,23705,999,58228,.14833E-3,.243E-5,0
SL-16 R/B,1996-051B,2026-06-19T20:44:22.039872,14.12446718,.0015706,70.7644,318.9830,332.9211,27.1087,0,U,24298,999,53607,.90399E-4,.118E-5,0
ORBVIEW 2 (SEASTAR),1997-037A,2026-06-19T09:21:14.209920,14.35554150,.00032436,98.8690,337.4697,111.6179,248.5351,0,U,24883,999,52306,.7044278E-4,.156E-5,0
SL-16 R/B,1998-043G,2026-06-19T11:13:38.006400,14.26068958,.00109475,98.8364,124.6467,80.4627,279.7789,0,U,25400,999,45349,.3375448E-4,.35E-6,0
SL-16 R/B,1998-045B,2026-06-19T20:23:00.161952,14.16202419,.000926,71.0116,326.7305,238.3201,121.7020,0,U,25407,999,44156,-.5139E-4,-.15E-5,0
ISS (ZARYA),1998-067A,2026-06-19T20:01:06.424896,15.49322400,.0004571,51.6327,286.9925,206.3214,153.7542,0,U,25544,999,57216,.16559E-3,.8787E-4,0
CZ-4B R/B,1999-025C,2026-06-19T18:12:15.784128,14.18283838,.0037988,98.6482,212.5323,52.4474,60.6695,0,U,25732,999,40263,.32026E-4,.24E-6,0
OKEAN-O,1999-039A,2026-06-19T17:06:52.170912,14.80469987,.0001549,97.9314,229.4819,71.6153,288.5227,0,U,25860,999,44948,.65544E-4,.449E-5,0
SL-16 R/B,1999-039B,2026-06-19T17:34:50.458080,14.81847236,.0013417,97.9836,229.5883,287.8504,72.1245,0,U,25861,999,45197,.50515E-4,.346E-5,0
DELTA 2 R/B,1999-041E,2026-06-19T12:16:07.527936,14.12018937,.05008478,51.7651,254.5131,288.8870,65.8407,0,U,25876,999,37741,.88505457E-4,.313E-5,0
HELIOS 1B,1999-064A,2026-06-19T17:36:52.223328,14.88012222,.0002545,98.1613,75.9474,87.7385,272.4121,0,U,25977,999,70043,.11592E-3,.1006E-4,0
TERRA,1999-068A,2026-06-19T20:02:05.925984,14.61104873,.0001794,97.9455,220.2761,180.7116,290.3112,0,U,25994,999,40999,.65954E-4,.28E-5,0
SL-16 R/B,2000-006B,2026-06-19T11:12:56.397024,14.15834373,.00156599,71.0018,243.8310,19.5397,340.6323,0,U,26070,999,36296,.7274359E-4,.95E-6,0
TITAN 4B R/B,2000-047B,2026-06-19T20:12:21.951072,15.10210234,.0045848,67.9884,113.1008,284.2758,75.3302,0,U,26474,999,40833,.15673E-3,.249E-4,0
ENVISAT,2002-009A,2026-06-19T21:11:15.836352,14.39065299,.0001389,98.3834,122.1412,89.3478,287.9562,0,U,27386,999,27387,.32811E-4,.58E-6,0
IDEFIX & ARIANE 42P R/B,2002-021B,2026-06-19T17:11:45.951648,14.31083048,.0010614,98.5942,108.1723,245.5544,114.4532,0,U,27422,999,25861,.75812E-4,.156E-5,0
AQUA,2002-022A,2026-06-19T20:29:41.681760,14.62161415,.0001,98.4277,140.1900,54.7538,335.1578,0,U,27424,999,28366,.12222E-3,.565E-5,0
CZ-4B R/B,2002-024C,2026-06-19T17:25:17.925888,14.14564690,.0051219,98.8698,223.5297,93.1806,18.4687,0,U,27432,999,24366,.33195E-4,.21E-6,0
MIDORI II (ADEOS-II),2002-056A,2026-06-19T17:28:29.814240,14.29350768,.0002174,98.7878,130.0096,73.3709,286.7711,0,U,27597,999,22487,.92941E-4,.191E-5,0
H-2A R/B,2002-056E,2026-06-19T17:37:27.907392,14.33822991,.0069297,98.3312,127.3160,216.8811,209.1775,0,U,27601,999,22873,.67202E-4,.15E-5,0
CZ-4B R/B,2003-049C,2026-06-19T13:39:39.013056,14.55101454,.00469122,98.6896,169.5106,281.1238,78.4685,0,U,28059,999,20141,.58954489E-4,.206E-5,0
CZ-2C R/B,2004-012C,2026-06-19T19:42:57.451392,15.79438376,.0009702,97.7076,246.7920,272.9937,87.0218,0,U,28222,999,22031,.49589E-3,.90295E-3,0
SL-16 R/B,2004-021B,2026-06-19T16:57:57.781728,14.14607476,.0007171,71.0005,18.4011,251.6231,108.4112,0,U,28353,999,13726,-.74933E-4,-.192E-5,0
CZ-4B R/B,2004-035C,2026-06-19T16:22:22.550016,15.30655787,.002963,97.3362,203.7276,328.7624,31.1855,0,U,28415,999,19550,.20607E-3,.6109E-4,0
CZ-2C R/B,2004-046B,2026-06-19T17:10:38.409312,14.27026937,.0138613,98.1943,79.3386,212.7417,146.5118,0,U,28480,999,12305,.32403E-4,.46E-6,0
ARIANE 5 R/B,2004-049H,2026-06-19T11:42:29.250720,14.85451455,.00843341,98.2722,342.8294,22.0227,338.4576,0,U,28499,999,16090,.53703399E-4,.428E-5,0
CZ-2D R/B,2005-024B,2026-06-19T13:52:25.356000,15.69779759,.00029674,97.3481,190.1257,49.2579,310.8941,0,U,28738,999,15571,.40689034E-3,.48463E-3,0
ALOS (DAICHI),2006-002A,2026-06-19T19:30:55.722816,14.70054658,.0001351,98.1324,126.3723,56.4498,303.6837,0,U,28931,999,8848,.13441E-3,.757E-5,0
H-2A R/B,2006-002B,2026-06-19T11:50:26.820672,15.18084943,.00496044,98.2571,326.5305,254.2243,105.3515,0,U,28932,999,10987,.26150486E-3,.5418E-4,0
